[{"OBJECT_NAME":"STARLINK-30375","OBJECT_ID":"2023-131A","EPOCH":"2026-03-09T22:52:41.457504","MEAN_MOTION":15.26705495,"ECCENTRICITY":0.00014103,"INCLINATION":43.0015,"RA_OF_ASC_NODE":155.9024,"ARG_OF_PERICENTER":261.0361,"MEAN_ANOMALY":99.0331,"EPHEMERIS_TYPE":0,"CLASSIFICATION_TYPE":"U","NORAD_CAT_ID":57732,"ELEMENT_SET_NO":999,"REV_AT_EPOCH":14014,"BSTAR":4.0278757e-5,"MEAN_MOTION_DOT":8.2e-6,"MEAN_MOTION_DDOT":0},{"OBJECT_NAME":"FLOCK 4G-22","OBJECT_ID":"2025-009AN","EPOCH":"2026-03-09T22:51:40.689792","MEAN_MOTION":15.2720903,"ECCENTRICITY":8.959e-5,"INCLINATION":97.4046,"RA_OF_ASC_NODE":151.5884,"ARG_OF_PERICENTER":284.1963,"MEAN_ANOMALY":75.9176,"EPHEMERIS_TYPE":0,"CLASSIFICATION_TYPE":"U","NORAD_CAT_ID":62645,"ELEMENT_SET_NO":999,"REV_AT_EPOCH":6376,"BSTAR":0.00049035383,"MEAN_MOTION_DOT":0.00013013,"MEAN_MOTION_DDOT":0}]
